CCSDS_OMM_VERS = 2.0
CREATION_DATE  = 
ORIGINATOR     = 

OBJECT_NAME    = DELTA 2 R/B(1)
OBJECT_ID      = 1990-008B
CENTER_NAME    = EARTH
REF_FRAME      = TEME
TIME_SYSTEM    = UTC
MEAN_ELEMENT_THEORY = SGP/SGP4

EPOCH          = 2026-02-26T14:09:00.687456
MEAN_MOTION    = 15.54271150
ECCENTRICITY   = .0087706
INCLINATION    = 35.6029
RA_OF_ASC_NODE = 247.6121
ARG_OF_PERICENTER = 155.5426
MEAN_ANOMALY   = 204.9506

EPHEMERIS_TYPE = 0
CLASSIFICATION_TYPE = U
NORAD_CAT_ID   = 20453
ELEMENT_SET_NO = 999
REV_AT_EPOCH   = 92440
BSTAR          = .86209E-3
MEAN_MOTION_DOT = .69547E-3
MEAN_MOTION_DDOT = 0

CCSDS_OMM_VERS = 2.0
CREATION_DATE  = 
ORIGINATOR     = 

OBJECT_NAME    = COSMOS 2058
OBJECT_ID      = 1990-010A
CENTER_NAME    = EARTH
REF_FRAME      = TEME
TIME_SYSTEM    = UTC
MEAN_ELEMENT_THEORY = SGP/SGP4

EPOCH          = 2026-02-26T11:00:03.166272
MEAN_MOTION    = 15.11204715
ECCENTRICITY   = .0010159
INCLINATION    = 82.4669
RA_OF_ASC_NODE = 58.4931
ARG_OF_PERICENTER = 20.9889
MEAN_ANOMALY   = 339.1756

EPHEMERIS_TYPE = 0
CLASSIFICATION_TYPE = U
NORAD_CAT_ID   = 20465
ELEMENT_SET_NO = 999
REV_AT_EPOCH   = 94054
BSTAR          = .23426E-3
MEAN_MOTION_DOT = .3966E-4
MEAN_MOTION_DDOT = 0

CCSDS_OMM_VERS = 2.0
CREATION_DATE  = 
ORIGINATOR     = 

OBJECT_NAME    = SL-14 R/B
OBJECT_ID      = 1990-010B
CENTER_NAME    = EARTH
REF_FRAME      = TEME
TIME_SYSTEM    = UTC
MEAN_ELEMENT_THEORY = SGP/SGP4

EPOCH          = 2026-02-26T02:03:54.669024
MEAN_MOTION    = 14.83557370
ECCENTRICITY   = .00193337
INCLINATION    = 82.4997
RA_OF_ASC_NODE = 278.2909
ARG_OF_PERICENTER = 342.5117
MEAN_ANOMALY   = 17.5430

EPHEMERIS_TYPE = 0
CLASSIFICATION_TYPE = U
NORAD_CAT_ID   = 20466
ELEMENT_SET_NO = 999
REV_AT_EPOCH   = 92676
BSTAR          = .41499888E-4
MEAN_MOTION_DOT = .366E-5
MEAN_MOTION_DDOT = 0

CCSDS_OMM_VERS = 2.0
CREATION_DATE  = 
ORIGINATOR     = 

OBJECT_NAME    = SL-14 R/B
OBJECT_ID      = 1990-018B
CENTER_NAME    = EARTH
REF_FRAME      = TEME
TIME_SYSTEM    = UTC
MEAN_ELEMENT_THEORY = SGP/SGP4

EPOCH          = 2026-02-26T11:56:48.388128
MEAN_MOTION    = 14.82130320
ECCENTRICITY   = .0017453
INCLINATION    = 82.5184
RA_OF_ASC_NODE = 233.5519
ARG_OF_PERICENTER = 126.0368
MEAN_ANOMALY   = 234.2467

EPHEMERIS_TYPE = 0
CLASSIFICATION_TYPE = U
NORAD_CAT_ID   = 20511
ELEMENT_SET_NO = 999
REV_AT_EPOCH   = 92092
BSTAR          = .59409E-4
MEAN_MOTION_DOT = .497E-5
MEAN_MOTION_DDOT = 0

CCSDS_OMM_VERS = 2.0
CREATION_DATE  = 
ORIGINATOR     = 

OBJECT_NAME    = HST
OBJECT_ID      = 1990-037B
CENTER_NAME    = EARTH
REF_FRAME      = TEME
TIME_SYSTEM    = UTC
MEAN_ELEMENT_THEORY = SGP/SGP4

EPOCH          = 2026-02-26T09:25:34.025088
MEAN_MOTION    = 15.29278631
ECCENTRICITY   = .0001339
INCLINATION    = 28.4693
RA_OF_ASC_NODE = 117.0524
ARG_OF_PERICENTER = 7.6590
MEAN_ANOMALY   = 352.4025

EPHEMERIS_TYPE = 0
CLASSIFICATION_TYPE = U
NORAD_CAT_ID   = 20580
ELEMENT_SET_NO = 999
REV_AT_EPOCH   = 77158
BSTAR          = .24946E-3
MEAN_MOTION_DOT = .7522E-4
MEAN_MOTION_DDOT = 0

CCSDS_OMM_VERS = 2.0
CREATION_DATE  = 
ORIGINATOR     = 

OBJECT_NAME    = SL-16 R/B
OBJECT_ID      = 1990-046B
CENTER_NAME    = EARTH
REF_FRAME      = TEME
TIME_SYSTEM    = UTC
MEAN_ELEMENT_THEORY = SGP/SGP4

EPOCH          = 2026-02-26T10:58:22.742688
MEAN_MOTION    = 14.15015386
ECCENTRICITY   = .00158919
INCLINATION    = 71.0014
RA_OF_ASC_NODE = 321.5043
ARG_OF_PERICENTER = 314.9165
MEAN_ANOMALY   = 45.0668

EPHEMERIS_TYPE = 0
CLASSIFICATION_TYPE = U
NORAD_CAT_ID   = 20625
ELEMENT_SET_NO = 999
REV_AT_EPOCH   = 84680
BSTAR          = -.5190437E-5
MEAN_MOTION_DOT = -.58E-6
MEAN_MOTION_DDOT = 0

CCSDS_OMM_VERS = 2.0
CREATION_DATE  = 
ORIGINATOR     = 

OBJECT_NAME    = SL-8 R/B
OBJECT_ID      = 1990-078B
CENTER_NAME    = EARTH
REF_FRAME      = TEME
TIME_SYSTEM    = UTC
MEAN_ELEMENT_THEORY = SGP/SGP4

EPOCH          = 2026-02-26T06:50:23.223264
MEAN_MOTION    = 14.88633393
ECCENTRICITY   = .0364877
INCLINATION    = 82.9002
RA_OF_ASC_NODE = 261.5655
ARG_OF_PERICENTER = 52.2748
MEAN_ANOMALY   = 311.0951

EPHEMERIS_TYPE = 0
CLASSIFICATION_TYPE = U
NORAD_CAT_ID   = 20775
ELEMENT_SET_NO = 999
REV_AT_EPOCH   = 80760
BSTAR          = .42623E-3
MEAN_MOTION_DOT = .14533E-3
MEAN_MOTION_DDOT = 0

CCSDS_OMM_VERS = 2.0
CREATION_DATE  = 
ORIGINATOR     = 

OBJECT_NAME    = SL-8 R/B
OBJECT_ID      = 1991-006B
CENTER_NAME    = EARTH
REF_FRAME      = TEME
TIME_SYSTEM    = UTC
MEAN_ELEMENT_THEORY = SGP/SGP4

EPOCH          = 2026-02-26T10:33:18.135072
MEAN_MOTION    = 13.77492932
ECCENTRICITY   = .0023592
INCLINATION    = 82.9461
RA_OF_ASC_NODE = 178.4087
ARG_OF_PERICENTER = 68.5540
MEAN_ANOMALY   = 0.0310

EPHEMERIS_TYPE = 0
CLASSIFICATION_TYPE = U
NORAD_CAT_ID   = 21088
ELEMENT_SET_NO = 999
REV_AT_EPOCH   = 76252
BSTAR          = .29041E-4
MEAN_MOTION_DOT = .44E-6
MEAN_MOTION_DDOT = 0

